LEMUR-2-KREMPEL-BRO1    
1 63357U 25061G   26061.98947663  .00005507  00000+0  30868-3 0  9999
2 63357  97.5517  38.6468 0017114 254.2952 105.6391 15.13685000 51569
LEMUR-2-LANGER2SPACE    
1 63358U 25061H   26061.92859876  .00005767  00000+0  32613-3 0  9990
2 63358  97.5521  38.4436 0015087 264.6286  95.3224 15.13370835 51545
LEMUR-2-BALTO           
1 63395U 25052BH  26061.95234648  .00007000  00000+0  58510-3 0  9994
2 63395  97.7009 316.8579 0003168  18.7287 341.4052 14.98813347 52846
