[{"OBJECT_NAME":"LEMUR-2-KREMPEL-BRO1","OBJECT_ID":"2025-061G","EPOCH":"2026-03-02T23:44:50.780832","MEAN_MOTION":15.13685,"ECCENTRICITY":0.0017114,"INCLINATION":97.5517,"RA_OF_ASC_NODE":38.6468,"ARG_OF_PERICENTER":254.2952,"MEAN_ANOMALY":105.6391,"EPHEMERIS_TYPE":0,"CLASSIFICATION_TYPE":"U","NORAD_CAT_ID":63357,"ELEMENT_SET_NO":999,"REV_AT_EPOCH":5156,"BSTAR":0.00030868,"MEAN_MOTION_DOT":5.507e-5,"MEAN_MOTION_DDOT":0},{"OBJECT_NAME":"LEMUR-2-LANGER2SPACE","OBJECT_ID":"2025-061H","EPOCH":"2026-03-02T22:17:10.932864","MEAN_MOTION":15.13370835,"ECCENTRICITY":0.0015087,"INCLINATION":97.5521,"RA_OF_ASC_NODE":38.4436,"ARG_OF_PERICENTER":264.6286,"MEAN_ANOMALY":95.3224,"EPHEMERIS_TYPE":0,"CLASSIFICATION_TYPE":"U","NORAD_CAT_ID":63358,"ELEMENT_SET_NO":999,"REV_AT_EPOCH":5154,"BSTAR":0.00032613,"MEAN_MOTION_DOT":5.767e-5,"MEAN_MOTION_DDOT":0},{"OBJECT_NAME":"LEMUR-2-BALTO","OBJECT_ID":"2025-052BH","EPOCH":"2026-03-02T22:51:22.735872","MEAN_MOTION":14.98813347,"ECCENTRICITY":0.0003168,"INCLINATION":97.7009,"RA_OF_ASC_NODE":316.8579,"ARG_OF_PERICENTER":18.7287,"MEAN_ANOMALY":341.4052,"EPHEMERIS_TYPE":0,"CLASSIFICATION_TYPE":"U","NORAD_CAT_ID":63395,"ELEMENT_SET_NO":999,"REV_AT_EPOCH":5284,"BSTAR":0.0005851,"MEAN_MOTION_DOT":7.0e-5,"MEAN_MOTION_DDOT":0}]
